ONEWEB-0379             
1 49305U 21090AC  25095.51282188 -.00000053  00000+0 -17864-3 0  9997
2 49305  87.9088  16.7429 0002002  76.6022 283.5331 13.14505123171367
ONEWEB-0380             
1 49306U 21090AD  25095.87385955  .00000027  00000+0  34297-4 0  9992
2 49306  87.9248  31.8939 0001910  85.5693 274.5657 13.19723201170027
ONEWEB-0381             
1 49307U 21090AE  25095.73860428  .00000062  00000+0  12044-3 0  9995
2 49307  87.9332   1.5193 0001904  86.8557 273.2794 13.20775561173382
ONEWEB-0382             
1 49308U 21090AF  25095.19568427  .00000039  00000+0  63078-4 0  9998
2 49308  87.9330   1.6217 0002141  85.6959 274.4419 13.20770268173315
ONEWEB-0383             
1 49309U 21090AG  25095.50648388 -.00000108  00000+0 -32681-3 0  9993
2 49309  87.9084  16.7263 0002065  78.7972 281.3390 13.14503334171384
ONEWEB-0384             
1 49310U 21090AH  25095.49541192  .00000026  00000+0  32010-4 0  9992
2 49310  87.9333   1.5782 0002325  86.6278 273.5121 13.20778676173362
ONEWEB-0385             
1 49311U 21090AJ  25095.49081828 -.00000016  00000+0 -71332-4 0  9999
2 49311  87.9332   1.5799 0002004  82.5489 277.5872 13.20769607173342
ONEWEB-0386             
1 49312U 21090AK  25095.73545322  .00000039  00000+0  63412-4 0  9994
2 49312  87.9325   1.5067 0002160  82.7440 277.3938 13.20770250173386
